IDEFIX & ARIANE 42P R/B 
1 27422U 02021B   26054.30205368  .00000288  00000+0  12585-3 0  9997
2 27422  98.5857 353.0817 0010824 226.7615 133.2665 14.31014844241960
AQUA                    
1 27424U 02022A   26054.85342259  .00001079  00000+0  22529-3 0  9999
2 27424  98.4149  21.9692 0000934  48.0359 342.1791 14.61938996266715
CZ-4B R/B               
1 27432U 02024C   26054.59331737  .00000024  00000+0  35145-4 0  9998
2 27432  98.8874 108.0690 0051041  63.7474 104.4206 14.14544863227244
MIDORI II (ADEOS-II)    
1 27597U 02056A   26054.59268027  .00000255  00000+0  11814-3 0  9998
2 27597  98.7743  12.9754 0002014  62.6968 297.4418 14.29273095208289
H-2A R/B                
1 27601U 02056E   26054.63209456  .00000278  00000+0  11204-3 0  9998
2 27601  98.3175  15.5352 0069628 202.6317 330.8240 14.33750158212095
CZ-4B R/B               
1 28059U 03049C   26054.42359172  .00000427  00000+0  10971-3 0  9993
2 28059  98.6866  48.7705 0047007 275.5040  84.0795 14.55004041184528
CZ-2C R/B               
1 28222U 04012C   26054.59362149  .00060394  00000+0  66689-3 0  9998
2 28222  97.7262 118.5686 0014239   6.0052 354.1373 15.62754641202076
SL-16 R/B               
1 28353U 04021B   26054.80950677  .00000146  00000+0  10098-3 0  9998
2 28353  70.9990 261.6233 0003369  41.2671 318.8706 14.14598804120877
CZ-4B R/B               
1 28415U 04035C   26054.05255159  .00009943  00000+0  35250-3 0  9993
2 28415  97.3525  88.4720 0032816  23.8784 336.3970 15.28768070177677
CZ-2C R/B               
1 28480U 04046B   26054.32151776  .00000127  00000+0  62639-4 0  9994
2 28480  98.1989 330.1987 0138995 196.9067 162.7459 14.26986799106453
ARIANE 5 R/B            
1 28499U 04049H   26054.41782698  .00000825  00000+0  97239-4 0  9999
2 28499  98.2603 222.3432 0084930  38.0507 322.6664 14.85235946143674
CZ-2D R/B               
1 28738U 05024B   26054.46396135  .00047129  00000+0  60912-3 0  9996
2 28738  97.3617  69.1037 0007475  80.8290 279.3811 15.58780890137563
